LEMUR-2-JOHANLORAN      
1 44084U 19018G   22288.73449303  .00069500  00000+0  14988-2 0  9995
2 44084  97.3005 350.1786 0008270  42.9678 317.2215 15.44291242197270
LEMUR-2-BEAUDACIOUS     
1 44085U 19018H   22289.10379614  .00032988  00000+0  90783-3 0  9993
2 44085  97.2989 348.7083 0010332  49.2114 311.0025 15.37051017197212
LEMUR-2-ELHAM           
1 44086U 19018J   22288.74619105  .00040923  00000+0  10136-2 0  9996
2 44086  97.3029 350.0559 0009142  41.9330 318.2615 15.40259087197269
LEMUR-2-VICTOR-ANDREW   
1 44087U 19018K   22288.71602182  .00067549  00000+0  14466-2 0  9994
2 44087  97.3034 350.8789 0007887  42.1093 318.0760 15.44509236197315
LEMUR-2-LILLYJO         
1 44396U 19038L   22288.88916034  .00023477  00000+0  10221-2 0  9998
2 44396  97.6309 259.6399 0022765  69.3980 290.9695 15.21991752181374
LEMUR-2-WANLI           
1 44402U 19038S   22289.48002316  .00020761  00000+0  92634-3 0  9994
2 44402  97.6330 259.9330 0022488  70.0927 290.2728 15.21184996181448
LEMUR-2-MORAG           
1 44403U 19038T   22288.89333647  .00014348  00000+0  63997-3 0  9997
2 44403  97.6370 260.3384 0021735  71.8743 288.4856 15.21295137181381
LEMUR-2-DUSTINTHEWIND   
1 44405U 19038V   22288.89759824  .00017888  00000+0  80665-3 0  9991
2 44405  97.6337 259.1885 0022845  70.4456 289.9243 15.20846747181358
LEMUR-2-ALEX-MADDY      
1 44407U 19038X   22289.36779092  .00011798  00000+0  56771-3 0  9990
2 44407  97.6427 259.4902 0022691  76.5818 283.7943 15.18710058181341
LEMUR-2-EJATTA          
1 44409U 19038Z   22288.70128298  .00017755  00000+0  77100-3 0  9993
2 44409  97.6313 259.7828 0021994  67.2819 293.0739 15.22154390181387
LEMUR-2-GREGROBINSON    
1 44411U 19038AB  22289.17711559  .00022856  00000+0  10127-2 0  9999
2 44411  97.6377 260.5628 0022902  74.9514 285.4253 15.21395194181086
LEMUR-2-YNDRD           
1 44413U 19038AD  22288.88217747  .00017530  00000+0  84604-3 0  9993
2 44413  97.6411 258.7448 0022912  78.2751 282.1051 15.18506704181275
LEMUR-2-JPGSQUARED      
1 44855U 19089D   22288.80474553  .00009210  00000+0  65423-3 0  9995
2 44855  36.9642 102.7686 0003783 120.2238 239.8880 15.04251123156135
LEMUR-2-HIMOMANDDAD     
1 44860U 19089J   22288.85772326  .00011270  00000+0  80387-3 0  9990
2 44860  36.9645 104.0945 0003830 111.0526 249.0627 15.04023797156101
LEMUR-2-PAPPY           
1 44861U 19089K   22288.84282369  .00010849  00000+0  77571-3 0  9995
2 44861  36.9642 103.9656 0003757 113.0210 247.0930 15.03945644156069
LEMUR-2-THEODOSIA       
1 44863U 19089M   22289.18438727  .00009208  00000+0  65437-3 0  9991
2 44863  36.9636 101.1176 0004074 121.9374 238.1765 15.04231509156036
LEMUR-2-ETHANOAKES      
1 46298U 20061AC  22289.15948902  .00022316  00000+0  10361-2 0  9995
2 46298  97.4378 358.7969 0002049 122.3032 237.8401 15.20026562116826
LEMUR-2-OSCARLATOR      
1 46299U 20061AD  22289.20081775  .00024752  00000+0  11329-2 0  9999
2 46299  97.4393 358.9333 0001956 128.6728 231.4682 15.20498242116861
LEMUR-2-SCHMIDTFALL     
1 46315U 20061AV  22288.71854028  .00024427  00000+0  11002-2 0  9999
2 46315  97.4401 359.0077 0003331 107.2415 252.9186 15.21051169116863
LEMUR-2-DJUPROERA       
1 46316U 20061AW  22289.41543318  .00026142  00000+0  11517-2 0  9992
2 46316  97.4388 359.8487 0003183 104.6010 255.5579 15.21793575116980
LEMUR-2-SQUAREJAWS      
1 46317U 20061AX  22289.12242483  .00026624  00000+0  11846-2 0  9990
2 46317  97.4399 359.4953 0003299 104.3816 255.7787 15.21450824116942
LEMUR-2-URSA-AVION      
1 46318U 20061AY  22288.72926558  .00024874  00000+0  11113-2 0  9990
2 46318  97.4397 359.0961 0003434 104.0558 256.1060 15.21323731116885
LEMUR-2-SLICERS         
1 46500U 20068Q   22288.79007567  .00013776  00000+0  91298-3 0  9999
2 46500  97.7292 229.6810 0009864 245.7592 114.2602 15.07371888112224
LEMUR-2-DAYWZAGOODDAY   
1 46501U 20068R   22288.83856802  .00015626  00000+0  10251-2 0  9994
2 46501  97.7260 229.9698 0010038 234.9739 125.0546 15.07715624112233
LEMUR-2-SUSURRUS        
1 46502U 20068S   22288.79088990  .00016475  00000+0  10904-2 0  9993
2 46502  97.7302 229.6731 0009670 248.2502 111.7702 15.07378544112223
LEMUR-2-NICHOL          
1 46503U 20068T   22288.81366229  .00014305  00000+0  94917-3 0  9998
2 46503  97.7323 229.6471 0009630 254.1477 105.8679 15.07322082112224
LEMUR-2-OZARAK          
1 46908U 20081D   22288.92536749  .00014415  00000+0  10484-2 0  9998
2 46908  36.9040 228.2021 0007715 319.0769  40.9385 15.03194224106291
LEMUR-2-JINDRA          
1 46909U 20081E   22288.54581980  .00017023  00000+0  12146-2 0  9999
2 46909  36.9020 228.8850 0008384 326.3756  33.6395 15.03861987106260
LEMUR-2-WALLACE         
1 46910U 20081F   22288.17203944  .00015421  00000+0  11092-2 0  9990
2 46910  36.9018 231.4465 0008930 320.8601  39.1501 15.03581138106195
LEMUR-2-JEREMIAH        
1 46911U 20081G   22288.22153360  .00013972  00000+0  10108-2 0  9999
2 46911  36.9069 230.9432 0007215 327.2287  32.8010 15.03403967106217
LEMUR-2-NEVA            
1 47450U 21006AP  22289.09873351  .00017278  00000+0  80715-3 0  9996
2 47450  97.4317 346.8519 0009636 209.9881 150.0803 15.19829224 95600
LEMUR-2-SAOIRSEDH5GUO   
1 47453U 21006AS  22288.69429985  .00018789  00000+0  86963-3 0  9993
2 47453  97.4341 346.5527 0008187 211.3816 148.6932 15.20142856 95530
LEMUR-2-NALLYWACKER     
1 47457U 21006AW  22288.74205555  .00018266  00000+0  84038-3 0  9999
2 47457  97.4313 346.5789 0009117 210.8381 149.2320 15.20349497 95558
LEMUR-2-MANGO1          
1 47493U 21006CJ  22288.72629719  .00014587  00000+0  70926-3 0  9992
2 47493  97.4264 345.5305 0008847 215.6011 144.4634 15.18483307 95515
LEMUR-2-RUAIRI-EILIDH   
1 47511U 21006DC  22288.67638283  .00017111  00000+0  82498-3 0  9996
2 47511  97.4252 345.1085 0006390 214.6990 145.3829 15.18760472 95483
LEMUR-2-JENNIFERSONG    
1 47525U 21006DR  22289.13452875  .00019000  00000+0  87438-3 0  9992
2 47525  97.4268 346.6130 0009227 209.7791 150.2921 15.20330214 95611
LEMUR-2-CHANTAL         
1 47529U 21006DV  22289.42366829  .00015164  00000+0  74634-3 0  9992
2 47529  97.4264 345.5968 0006015 214.8454 145.2387 15.18068431 96531
LEMUR-2-NOOBNOOB        
1 47538U 21006DY  22289.14743153  .00017159  00000+0  81272-3 0  9992
2 47538  97.4326 346.7719 0009149 211.2950 148.7741 15.19356827 95597
LEMUR-2-AMANDA-SVANTE   
1 48269U 21034B   22288.71679067  .00005685  00000+0  62178-3 0  9994
2 48269  97.7369 357.1137 0004201  57.8081 302.3543 14.88207971 79413
LEMUR-2-SPECIAL-K       
1 48273U 21034F   22289.46575007  .00005667  00000+0  61985-3 0  9996
2 48273  97.7367 357.8214 0004068  51.3852 308.7728 14.88205995 79537
LEMUR-2-JACKSON         
1 48885U 21059G   22289.30265562  .00019179  00000+0  91083-3 0  9992
2 48885  97.5673  58.8384 0007958  45.3726 314.8156 15.19252389 72275
LEMUR-2-ANNABANANA      
1 48923U 21059AW  22289.35756429  .00020357  00000+0  92281-3 0  9998
2 48923  97.5617  59.3194 0010877  34.6758 325.5184 15.20822321 72339
LEMUR-2-JOHN-TREIRES    
1 48925U 21059AY  22288.33573974  .00027370  00000+0  12072-2 0  9990
2 48925  97.5690  58.9849 0013134  38.8851 321.3327 15.21673379 72200
LEMUR-2-AC-CUBED        
1 48927U 21059BA  22289.36087610  .00018027  00000+0  81811-3 0  9990
2 48927  97.5670  59.7840 0015584  39.2600 320.9762 15.20753489 72352
LEMUR-2-MERIMA          
1 48929U 21059BC  22289.12084540  .00020604  00000+0  91293-3 0  9994
2 48929  97.5617  59.6307 0015323  39.2660 320.9684 15.21548507 72334
LEMUR-2-CARLSANTAMARI   
1 48959U 21059CJ  22288.84683893  .00031135  00000+0  12733-2 0  9993
2 48959  97.5653  60.1006 0014206  42.9373 317.2970 15.24196167 72332
LEMUR-2-RAMONAMAE       
1 51021U 22002AP  22288.72766574  .00018582  00000+0  92402-3 0  9994
2 51021  97.4756 354.1682 0008733  28.0358 332.1344 15.17648793 41641
LEMUR-2-KING-JULIEN     
1 51022U 22002AQ  22288.74060926  .00019581  00000+0  97764-3 0  9991
2 51022  97.4731 354.0729 0008502  24.9647 335.1996 15.17497986 41648
LEMUR-2-ROHOVITHSA      
1 51036U 22002BE  22288.73985544  .00013126  00000+0  68918-3 0  9995
2 51036  97.4756 353.8787 0009236  28.6441 331.5297 15.15810766 41624
LEMUR-2-MIRIWARI        
1 51054U 22002BY  22289.14334974  .00014612  00000+0  76791-3 0  9995
2 51054  97.4748 354.2318 0008134  21.8136 338.3442 15.15760953 41687
LEMUR-2-DJIRANG         
1 51058U 22002CC  22288.74804796  .00013006  00000+0  68411-3 0  9994
2 51058  97.4728 353.7701 0007960  23.1896 336.9694 15.15758683 41627
LEMUR-2-KRYWE           
1 51100U 22003G   22288.96932738  .00029828  00000+0  78078-3 0  9994
2 51100  44.9855 122.3014 0009366 213.7616 146.2676 15.38211547 42114
LEMUR-2-TENNYSONLILY    
1 52732U 22057A   22289.25445159  .00018158  00000+0  10006-2 0  9994
2 52732  97.5317  42.2506 0009546 127.9504 232.2592 15.14016254 21696
LEMUR-2-VANDENDRIES     
1 52733U 22057B   22288.30062648  .00011405  00000+0  62996-3 0  9992
2 52733  97.5204  41.1770 0008784 123.8619 236.3450 15.14046024 21559
LEMUR-2-KAREN_B         
1 52736U 22057E   22288.29667439  .00020982  00000+0  11456-2 0  9996
2 52736  97.5192  41.1421 0008146 120.3912 239.8125 15.14326153 21552
LEMUR-2-HANCOM-1        
1 52740U 22057J   22288.77082498  .00014228  00000+0  78814-3 0  9998
2 52740  97.5382  41.9584 0011776 120.6176 239.6218 15.13863626 21623
LEMUR-2-MIMI1307        
1 52769U 22057AP  22288.78887406  .00006285  00000+0  34476-3 0  9992
2 52769  97.5364  42.2048 0015288 100.1010 260.1947 15.14422140 21648
